STARLINK-36664          
1 68965U 26099Q   26132.83335648  .00002909  00000+0  18263-4 0  9997
2 68965  53.1592 331.6285 0000671  77.8907 308.6962 15.80878499  3030
