{
  "norad_id": 68965,
  "name": "STARLINK-36664",
  "history": [
    {
      "epoch": "2026-05-12T20:00:01.999008Z",
      "apogee_km": 328.4050656332274,
      "perigee_km": 327.50510807517094,
      "latitude_deg": 21.032982667414938,
      "longitude_deg": 177.66438776364672,
      "height_km": 328.2416544813449,
      "semi_major_axis_km": 6706.092086854199,
      "eccentricity": 6.71e-05,
      "inclination_deg": 53.1592,
      "raan_deg": 331.6285,
      "arg_perigee_deg": 77.8907,
      "mean_anomaly_deg": 308.6962,
      "mean_motion_rev_day": 15.80878499
    }
  ]
}